IRIDIUM 144             
1 43249U 18030A   24255.54624197  .00000354  00000+0  11927-3 0  9994
2 43249  86.4024 199.3901 0002180  89.7695 270.3750 14.34216061337886
IRIDIUM 149             
1 43250U 18030B   24255.55257858  .00000503  00000+0  17240-3 0  9993
2 43250  86.4022 199.3616 0002383  90.0307 270.1162 14.34217657337909
IRIDIUM 157             
1 43251U 18030C   24254.59485065  .00000839  00000+0  29254-3 0  9990
2 43251  86.4023 199.7999 0002606  82.9148 277.2344 14.34219547337742
IRIDIUM 140             
1 43252U 18030D   24255.59063282  .00001292  00000+0  45407-3 0  9997
2 43252  86.4032 199.3977 0001843  88.6026 271.5381 14.34215230337940
IRIDIUM 145             
1 43253U 18030E   24255.57794751  .00000065  00000+0  16067-4 0  9996
2 43253  86.4027 199.3775 0002231  93.9629 266.1822 14.34214113337872
IRIDIUM 146             
1 43254U 18030F   24255.34961946  .00001229  00000+0  43172-3 0  9993
2 43254  86.4024 199.4875 0002203  89.4689 270.6760 14.34220358337854
IRIDIUM 148             
1 43255U 18030G   24255.59698035  .00001349  00000+0  47450-3 0  9993
2 43255  86.4026 199.4173 0002452  89.8443 270.3034 14.34219453337929
IRIDIUM 142             
1 43256U 18030H   24255.56526557  .00000567  00000+0  19546-3 0  9996
2 43256  86.4023 199.3436 0002307  94.6880 265.4579 14.34216146337886
